[{"OBJECT_NAME":"CREW DRAGON 12","OBJECT_ID":"2026-031A","EPOCH":"2026-03-04T20:48:04.408416","MEAN_MOTION":15.48447334,"ECCENTRICITY":0.0008177,"INCLINATION":51.6315,"RA_OF_ASC_NODE":96.2009,"ARG_OF_PERICENTER":157.5272,"MEAN_ANOMALY":202.6076,"EPHEMERIS_TYPE":0,"CLASSIFICATION_TYPE":"U","NORAD_CAT_ID":67796,"ELEMENT_SET_NO":999,"REV_AT_EPOCH":55549,"BSTAR":0.00017477,"MEAN_MOTION_DOT":9.014e-5,"MEAN_MOTION_DDOT":0}]
